TRITON-1                
1 39427U 13066M   26157.28789137  .00002484  00000+0  30191-3 0  9991
2 39427  97.8249  67.3430 0088431 270.0706  89.0374 14.81665554672477
GOMX-1                  
1 39430U 13066Q   26157.29083986  .00002037  00000+0  30977-3 0  9991
2 39430  97.6489 358.4404 0130087 112.1739 249.3332 14.69417131668312
CUBEBUG-2 (LO-74)       
1 39440U 13066AA  26156.80918561  .00005560  00000+0  51354-3 0  9990
2 39440  97.8908 105.7402 0059434  65.9901 294.7524 14.93668030675299
NEE-02 KRYSAOR          
1 39441U 13066AB  26157.10320968  .00002852  00000+0  31498-3 0  9991
2 39441  97.8890  96.3978 0067671 105.6781 255.1914 14.86571757674556
FUNCUBE-1 (AO-73)       
1 39444U 13066AE  26157.18462752  .00009267  00000+0  57636-3 0  9999
2 39444  97.8278 128.4023 0034655 239.5624 120.2179 15.09358417678007
UWE-3                   
1 39446U 13066AG  26156.85248531  .00005174  00000+0  44473-3 0  9999
2 39446  97.8697 112.8515 0049170 359.4628   0.6532 14.96934199675880
SMDC ONE 2.4            
1 39469U 13072H   26156.47882300  .00009546  00000+0  37105-3 0  9998
2 39469 120.4936 306.8856 0143536   6.5078 353.7823 15.17952221116051
COSMOS 2488 (RODNIK-S 7)
1 39483U 13076A   26157.25137358 -.00000027  00000+0 -26906-3 0  9995
2 39483  82.4829 175.5086 0020698 117.8657 242.4523 12.42905261564531
COSMOS 2489 (RODNIK-S 8)
1 39484U 13076B   26157.30684062 -.00000035  00000+0 -32460-3 0  9992
2 39484  82.4866 176.8492 0022531 117.8483 242.4883 12.42879190564599
COSMOS 2490 (RODNIK-S 9)
1 39485U 13076C   26157.27871262  .00000007  00000+0 -19953-4 0  9990
2 39485  82.4812 174.9389 0022468 132.8953 227.4018 12.42877590564521
KAZEOSAT 1              
1 39731U 14024A   26157.26706192  .00000277  00000+0  97342-4 0  9992
2 39731  98.3203 229.9854 0001504  76.0186 284.1171 14.42076072636986
COSMOS 2496 (RODNIK-S *)
1 39761U 14028A   26157.23625811  .00000071  00000+0  44356-3 0  9992
2 39761  82.4446 115.5902 0021190 101.4847 258.8614 12.42878193546157
COSMOS 2497 (RODNIK-S *)
1 39762U 14028B   26157.29217464  .00000049  00000+0  28291-3 0  9995
2 39762  82.4493 117.2407 0021783  96.6338 263.7222 12.42893731546163
COSMOS 2498 (RODNIK-S *)
1 39763U 14028C   26157.27053045  .00000030  00000+0  14216-3 0  9999
2 39763  82.4454 115.7460 0022503  96.3420 264.0223 12.42979709546191
HODOYOSHI-4             
1 40011U 14033B   26157.27558784  .00001751  00000+0  19512-3 0  9998
2 40011  97.5453 342.6247 0023439 345.8821  14.1738 14.88103967647188
UNISAT-6                
1 40012U 14033C   26156.70319073  .00004032  00000+0  43462-3 0  9998
2 40012  97.7873 309.6189 0046454 106.0537 254.5803 14.88181134644450
DEIMOS-2                
1 40013U 14033D   26157.26395669  .00001777  00000+0  17317-3 0  9999
2 40013  97.5834  32.1355 0001983  59.1325 301.0090 14.93693623636094
BUGSAT-1 (TITA)         
1 40014U 14033E   26157.27412269  .00007089  00000+0  37520-3 0  9997
2 40014  98.0420 249.1854 0027214 216.1807 143.7583 15.15464086654183
SAUDISAT 4              
1 40016U 14033G   26157.16279473  .00000902  00000+0  12521-3 0  9996
2 40016  97.7572 303.6800 0046172 108.7535 251.8696 14.79529501644441
APRIZESAT 9             
1 40018U 14033J   26156.87254485  .00000758  00000+0  11882-3 0  9999
2 40018  97.9048 290.3486 0064977 235.9898 123.5128 14.74199707641890
BRITE-CA1 (TORONTO)     
1 40020U 14033L   26156.82691227  .00000812  00000+0  12974-3 0  9990
2 40020  97.9727 285.9652 0077578 313.9957  45.4872 14.72661285640548
